QIANFAN-65              
1 62795U 25016L   25289.18241035  .00000084  00000+0  11150-3 0  9995
2 62795  88.9722 109.0146 0014862 143.9693 216.2463 13.50972145 39478
QIANFAN-66              
1 62796U 25016M   25284.76742828  .00000126  00000+0  17597-3 0  9999
2 62796  88.9747 109.4302 0015725 152.1511 208.0485 13.50966984 38920
QIANFAN-67              
1 62797U 25016N   25289.14124594  .00000072  00000+0  92368-4 0  9991
2 62797  88.9734 109.0090 0015877 146.8114 213.4036 13.50968863 39486
QIANFAN-68              
1 62798U 25016P   25289.20710714  .00000088  00000+0  11720-3 0  9993
2 62798  88.9736 109.0452 0015979 144.9884 215.2321 13.50971259 39476
QIANFAN-69              
1 62799U 25016Q   25289.14953619  .00000075  00000+0  97843-4 0  9997
2 62799  88.9715 108.9330 0016704 146.3865 213.8349 13.50968705 39509
QIANFAN-70              
1 62800U 25016R   25286.57358218 -.00000167  00000+0 -27734-3 0  9993
2 62800  88.9740 109.3259 0016256 144.3136 215.9105 13.50972411 39115
QIANFAN-71              
1 62801U 25016S   25289.16183743  .00000088  00000+0  11816-3 0  9995
2 62801  88.9730 109.0411 0016526 149.6593 210.5518 13.50972423 39467
QIANFAN-72              
1 62802U 25016T   25274.29087208  .00000084  00000+0  11481-3 0  9997
2 62802  88.9730 110.6012 0018440 200.3911 159.6505 13.49486897 37447
